start=new Date('2023-05-25T00:00:00.000Z').valueOf();
sats=[{"COUNTRY_CODE":"US","SITE":"AFETR","LAUNCH_DATE":"2023-02-12","MEAN_MOTION_DOT":"0.00002097","INCLINATION":"43.0034","PERIOD":"95.838","REV_AT_EPOCH":"1545","EPOCH":"2023-05-24T11:04:02.346528","TLE_LINE1":"1 55590U 23020X   23144.46113827  .00002097  00000-0  17028-3 0  9996","MEAN_ELEMENT_THEORY":"SGP4","BSTAR":"0.00017028000000","MEAN_MOTION_DDOT":"0.0000000000000","OBJECT_ID":"2023-020X","CENTER_NAME":"EARTH","RCS_SIZE":"LARGE","OBJECT_NAME":"STARLINK-5762","REF_FRAME":"TEME","MEAN_MOTION":"15.02537197","NORAD_CAT_ID":"55590","ARG_OF_PERICENTER":"270.1139","FILE":"3916549","RA_OF_ASC_NODE":"147.9966","EPHEMERIS_TYPE":"0","DECAY_DATE":null,"TIME_SYSTEM":"UTC","MEAN_ANOMALY":"89.9543","OBJECT_TYPE":"PAYLOAD","APOAPSIS":"560.051","SEMIMAJOR_AXIS":"6937.213","GP_ID":"232452242","TLE_LINE2":"2 55590  43.0034 147.9966 0001403 270.1139  89.9543 15.02537197 15456","ECCENTRICITY":"0.00014030","PERIAPSIS":"558.105","CLASSIFICATION_TYPE":"U","ELEMENT_SET_NO":"999"},{"ECCENTRICITY":"0.00011270","TLE_LINE2":"2 55591  43.0023 148.4386 0001127 306.3755  53.6983 15.02212527 15448","GP_ID":"232452490","CLASSIFICATION_TYPE":"U","PERIAPSIS":"559.295","ELEMENT_SET_NO":"999","SEMIMAJOR_AXIS":"6938.212","APOAPSIS":"560.859","DECAY_DATE":null,"TIME_SYSTEM":"UTC","MEAN_ANOMALY":"53.6983","OBJECT_TYPE":"PAYLOAD","RA_OF_ASC_NODE":"148.4386","EPHEMERIS_TYPE":"0","MEAN_MOTION":"15.02212527","REF_FRAME":"TEME","OBJECT_NAME":"STARLINK-5760","FILE":"3916549","NORAD_CAT_ID":"55591","ARG_OF_PERICENTER":"306.3755","CENTER_NAME":"EARTH","OBJECT_ID":"2023-020Y","MEAN_MOTION_DDOT":"0.0000000000000","RCS_SIZE":"LARGE","PERIOD":"95.859","LAUNCH_DATE":"2023-02-12","INCLINATION":"43.0023","MEAN_MOTION_DOT":"0.00056537","REV_AT_EPOCH":"1544","TLE_LINE1":"1 55591U 23020Y   23144.40453748  .00056537  00000-0  42025-2 0  9992","EPOCH":"2023-05-24T09:42:32.038272","MEAN_ELEMENT_THEORY":"SGP4","BSTAR":"0.00420250000000","COUNTRY_CODE":"US","SITE":"AFETR"},{"SEMIMAJOR_AXIS":"6937.217","APOAPSIS":"560.028","ECCENTRICITY":"0.00013630","GP_ID":"232453236","TLE_LINE2":"2 55592  43.0031 148.3251 0001363 270.3372  89.7314 15.02535748 15446","CLASSIFICATION_TYPE":"U","PERIAPSIS":"558.137","ELEMENT_SET_NO":"999","RA_OF_ASC_NODE":"148.3251","EPHEMERIS_TYPE":"0","TIME_SYSTEM":"UTC","DECAY_DATE":null,"OBJECT_TYPE":"PAYLOAD","MEAN_ANOMALY":"89.7314","CENTER_NAME":"EARTH","OBJECT_ID":"2023-020Z","MEAN_MOTION_DDOT":"0.0000000000000","RCS_SIZE":"LARGE","MEAN_MOTION":"15.02535748","REF_FRAME":"TEME","OBJECT_NAME":"STARLINK-5759","FILE":"3916549","ARG_OF_PERICENTER":"270.3372","NORAD_CAT_ID":"55592","COUNTRY_CODE":"US","SITE":"AFETR","PERIOD":"95.838","LAUNCH_DATE":"2023-02-12","MEAN_MOTION_DOT":"0.00001420","INCLINATION":"43.0031","REV_AT_EPOCH":"1544","TLE_LINE1":"1 55592U 23020Z   23144.39022168  .00001420  00000-0  12014-3 0  9996","EPOCH":"2023-05-24T09:21:55.153152","MEAN_ELEMENT_THEORY":"SGP4","BSTAR":"0.00012014000000"},{"REV_AT_EPOCH":"1544","MEAN_MOTION_DOT":"0.00002056","LAUNCH_DATE":"2023-02-12","INCLINATION":"43.0034","PERIOD":"95.838","MEAN_ELEMENT_THEORY":"SGP4","BSTAR":"0.00016723000000","EPOCH":"2023-05-24T09:33:06.416352","TLE_LINE1":"1 55593U 23020AA  23144.39799093  .00002056  00000-0  16723-3 0  9992","COUNTRY_CODE":"US","SITE":"AFETR","ARG_OF_PERICENTER":"271.5615","NORAD_CAT_ID":"55593","FILE":"3916549","REF_FRAME":"TEME","OBJECT_NAME":"STARLINK-5703","MEAN_MOTION":"15.02536771","RCS_SIZE":"LARGE","OBJECT_ID":"2023-020AA","MEAN_MOTION_DDOT":"0.0000000000000","CENTER_NAME":"EARTH","DECAY_DATE":null,"TIME_SYSTEM":"UTC","MEAN_ANOMALY":"88.5069","OBJECT_TYPE":"PAYLOAD","EPHEMERIS_TYPE":"0","RA_OF_ASC_NODE":"148.3828","GP_ID":"232453487","TLE_LINE2":"2 55593  43.0034 148.3828 0001389 271.5615  88.5069 15.02536771 15442","ECCENTRICITY":"0.00013890","ELEMENT_SET_NO":"999","PERIAPSIS":"558.116","CLASSIFICATION_TYPE":"U","APOAPSIS":"560.043","SEMIMAJOR_AXIS":"6937.214"},{"RA_OF_ASC_NODE":"147.9390","EPHEMERIS_TYPE":"0","OBJECT_TYPE":"PAYLOAD","MEAN_ANOMALY":"90.3698","TIME_SYSTEM":"UTC","DECAY_DATE":null,"APOAPSIS":"560.081","SEMIMAJOR_AXIS":"6937.199","PERIAPSIS":"558.047","CLASSIFICATION_TYPE":"U","ELEMENT_SET_NO":"999","TLE_LINE2":"2 55594  43.0025 147.9390 0001466 269.6976  90.3698 15.02541625 15450","GP_ID":"232451742","ECCENTRICITY":"0.00014660","SITE":"AFETR","COUNTRY_CODE":"US","EPOCH":"2023-05-24T10:52:51.268224","TLE_LINE1":"1 55594U 23020AB  23144.45337116  .00003893  00000-0  30304-3 0  9995","BSTAR":"0.00030304000000","MEAN_ELEMENT_THEORY":"SGP4","INCLINATION":"43.0025","LAUNCH_DATE":"2023-02-12","MEAN_MOTION_DOT":"0.00003893","PERIOD":"95.838","REV_AT_EPOCH":"1545","MEAN_MOTION_DDOT":"0.0000000000000","OBJECT_ID":"2023-020AB","CENTER_NAME":"EARTH","RCS_SIZE":"LARGE","REF_FRAME":"TEME","OBJECT_NAME":"STARLINK-5750","MEAN_MOTION":"15.02541625","NORAD_CAT_ID":"55594","ARG_OF_PERICENTER":"269.6976","FILE":"3916549"},{"SITE":"AFETR","COUNTRY_CODE":"US","BSTAR":"0.00012310000000","MEAN_ELEMENT_THEORY":"SGP4","EPOCH":"2023-05-24T11:00:50.431392","TLE_LINE1":"1 55595U 23020AC  23144.45891703  .00001460  00000-0  12310-3 0  9998","REV_AT_EPOCH":"1545","LAUNCH_DATE":"2023-02-12","INCLINATION":"43.0035","MEAN_MOTION_DOT":"0.00001460","PERIOD":"95.838","RCS_SIZE":"LARGE","MEAN_MOTION_DDOT":"0.0000000000000","OBJECT_ID":"2023-020AC","CENTER_NAME":"EARTH","ARG_OF_PERICENTER":"266.5154","NORAD_CAT_ID":"55595","FILE":"3916549","OBJECT_NAME":"STARLINK-5740","REF_FRAME":"TEME","MEAN_MOTION":"15.02536851","EPHEMERIS_TYPE":"0","RA_OF_ASC_NODE":"147.9752","OBJECT_TYPE":"PAYLOAD","MEAN_ANOMALY":"93.5532","DECAY_DATE":null,"TIME_SYSTEM":"UTC","APOAPSIS":"560.032","SEMIMAJOR_AXIS":"6937.214","ELEMENT_SET_NO":"999","PERIAPSIS":"558.126","CLASSIFICATION_TYPE":"U","TLE_LINE2":"2 55595  43.0035 147.9752 0001374 266.5154  93.5532 15.02536851 15453","GP_ID":"232451990","ECCENTRICITY":"0.00013740"},{"MEAN_MOTION":"15.02537657","OBJECT_NAME":"STARLINK-5729","REF_FRAME":"TEME","FILE":"3916549","ARG_OF_PERICENTER":"274.8356","NORAD_CAT_ID":"55596","CENTER_NAME":"EARTH","OBJECT_ID":"2023-020AD","MEAN_MOTION_DDOT":"0.0000000000000","RCS_SIZE":"LARGE","PERIOD":"95.838","MEAN_MOTION_DOT":"0.00001141","LAUNCH_DATE":"2023-02-12","INCLINATION":"43.0035","REV_AT_EPOCH":"1545","TLE_LINE1":"1 55596U 23020AD  23144.45114926  .00001141  00000-0  99501-4 0  9998","EPOCH":"2023-05-24T10:49:39.296064","MEAN_ELEMENT_THEORY":"SGP4","BSTAR":"0.00009950100000","COUNTRY_CODE":"US","SITE":"AFETR","ECCENTRICITY":"0.00014960","GP_ID":"232452736","TLE_LINE2":"2 55596  43.0035 147.9229 0001496 274.8356  85.2315 15.02537657 15456","CLASSIFICATION_TYPE":"U","PERIAPSIS":"558.039","ELEMENT_SET_NO":"999","SEMIMAJOR_AXIS":"6937.211","APOAPSIS":"560.114","DECAY_DATE":null,"TIME_SYSTEM":"UTC","MEAN_ANOMALY":"85.2315","OBJECT_TYPE":"PAYLOAD","RA_OF_ASC_NODE":"147.9229","EPHEMERIS_TYPE":"0"},{"FILE":"3916549","NORAD_CAT_ID":"55597","ARG_OF_PERICENTER":"268.5666","MEAN_MOTION":"15.02530129","OBJECT_NAME":"STARLINK-5743","REF_FRAME":"TEME","RCS_SIZE":"LARGE","CENTER_NAME":"EARTH","MEAN_MOTION_DDOT":"0.0000000000000","OBJECT_ID":"2023-020AE","MEAN_ELEMENT_THEORY":"SGP4","BSTAR":"0.00003485800000","TLE_LINE1":"1 55597U 23020AE  23144.37617833  .00000267  00000-0  34858-4 0  9997","EPOCH":"2023-05-24T09:01:41.807712","REV_AT_EPOCH":"1558","PERIOD":"95.838","MEAN_MOTION_DOT":"0.00000267","LAUNCH_DATE":"2023-02-12","INCLINATION":"43.0029","SITE":"AFETR","COUNTRY_CODE":"US","ELEMENT_SET_NO":"999","CLASSIFICATION_TYPE":"U","PERIAPSIS":"558.147","ECCENTRICITY":"0.00013730","GP_ID":"232452987","TLE_LINE2":"2 55597  43.0029 136.1186 0001373 268.5666  91.5019 15.02530129 15582","SEMIMAJOR_AXIS":"6937.235","APOAPSIS":"560.052","MEAN_ANOMALY":"91.5019","OBJECT_TYPE":"PAYLOAD","TIME_SYSTEM":"UTC","DECAY_DATE":null,"EPHEMERIS_TYPE":"0","RA_OF_ASC_NODE":"136.1186"},{"RCS_SIZE":"LARGE","MEAN_MOTION_DDOT":"0.0000000000000","OBJECT_ID":"2023-020AF","CENTER_NAME":"EARTH","ARG_OF_PERICENTER":"269.6600","NORAD_CAT_ID":"55598","FILE":"3916549","REF_FRAME":"TEME","OBJECT_NAME":"STARLINK-5756","MEAN_MOTION":"15.02522769","COUNTRY_CODE":"US","SITE":"AFETR","REV_AT_EPOCH":"1559","INCLINATION":"43.0030","LAUNCH_DATE":"2023-02-12","MEAN_MOTION_DOT":"-0.00003105","PERIOD":"95.839","BSTAR":"-0.00021495000000","MEAN_ELEMENT_THEORY":"SGP4","EPOCH":"2023-05-24T10:53:23.764128","TLE_LINE1":"1 55598U 23020AF  23144.45374727 -.00003105  00000-0 -21495-3 0  9997","APOAPSIS":"560.045","SEMIMAJOR_AXIS":"6937.257","TLE_LINE2":"2 55598  43.0030 135.8066 0001330 269.6600  90.4090 15.02522769 15590","GP_ID":"232452243","ECCENTRICITY":"0.00013300","ELEMENT_SET_NO":"999","PERIAPSIS":"558.200","CLASSIFICATION_TYPE":"U","EPHEMERIS_TYPE":"0","RA_OF_ASC_NODE":"135.8066","TIME_SYSTEM":"UTC","DECAY_DATE":null,"MEAN_ANOMALY":"90.4090","OBJECT_TYPE":"PAYLOAD"},{"COUNTRY_CODE":"US","SITE":"AFETR","MEAN_MOTION_DOT":"0.00002282","LAUNCH_DATE":"2023-02-12","INCLINATION":"43.0024","PERIOD":"95.838","REV_AT_EPOCH":"1558","EPOCH":"2023-05-24T09:12:52.324416","TLE_LINE1":"1 55599U 23020AG  23144.38393894  .00002282  00000-0  18394-3 0  9993","MEAN_ELEMENT_THEORY":"SGP4","BSTAR":"0.00018394000000","MEAN_MOTION_DDOT":"0.0000000000000","OBJECT_ID":"2023-020AG","CENTER_NAME":"EARTH","RCS_SIZE":"LARGE","REF_FRAME":"TEME","OBJECT_NAME":"STARLINK-5761","MEAN_MOTION":"15.02538195","NORAD_CAT_ID":"55599","ARG_OF_PERICENTER":"271.3851","FILE":"3916549","RA_OF_ASC_NODE":"136.1433","EPHEMERIS_TYPE":"0","TIME_SYSTEM":"UTC","DECAY_DATE":null,"OBJECT_TYPE":"PAYLOAD","MEAN_ANOMALY":"88.6827","APOAPSIS":"560.070","SEMIMAJOR_AXIS":"6937.210","GP_ID":"232452491","TLE_LINE2":"2 55599  43.0024 136.1433 0001434 271.3851  88.6827 15.02538195 15585","ECCENTRICITY":"0.00014340","PERIAPSIS":"558.080","CLASSIFICATION_TYPE":"U","ELEMENT_SET_NO":"999"}];
